{
"type": "FeatureCollection",
"name": "border",
"crs": { "type": "name", "properties": { "name": "urn:ogc:def:crs:OGC:1.3:CRS84" } },
"xy_coordinate_resolution": 1e-15,
"features": [
{"type":"Feature","properties":{"fid":1,"full_id":"w82900516"},"geometry":{"type":"MultiLineString","coordinates":[[[0.289170852206061,42.678962799915951],[0.295691,42.674177599999986],[0.2989473,42.6751526],[0.2999078,42.6754402],[0.3011435,42.6773778],[0.3048507,42.6790874],[0.3082491,42.6805691],[0.311184,42.6812529],[0.312649,42.6819385],[0.3138853,42.6828844],[0.3146875,42.6833187],[0.3154644,42.6837973],[0.3158247,42.683859],[0.3169284,42.6838513],[0.3191493,42.682819699999989],[0.3209466,42.682900099999983],[0.3238505,42.6868372],[0.3221197,42.6913061],[0.3219969,42.6916233],[0.323356,42.6928572],[0.324005,42.6934465],[0.324005,42.6956114],[0.3266309,42.6974345],[0.3253952,42.7003969],[0.3250293,42.7025915],[0.3252995,42.705181499999988],[0.3284509,42.7056463],[0.3317824,42.70724],[0.3363119,42.708699],[0.339706,42.710493799999988],[0.3453384,42.7111884],[0.3477197,42.7139466],[0.350079,42.716326400000014],[0.3544485,42.7186022],[0.3550099,42.7190142],[0.3585245,42.7195903],[0.359695,42.720718899999987],[0.3604154,42.723972],[0.3636568,42.7230425],[0.3701092,42.719563699999988],[0.3709621,42.7186148],[0.3714669,42.7170437],[0.3719154,42.7161487],[0.372841,42.7157394],[0.3754522,42.7141458],[0.3795941,42.714079399999989],[0.3831056,42.7133491],[0.3857549,42.711705399999985],[0.3882352,42.7125183],[0.391634,42.7133312],[0.3928154,42.7132443],[0.3937946,42.7099729],[0.3931957,42.7091652],[0.3934713,42.7061501],[0.3944818,42.7056759],[0.3948229,42.7042924],[0.3952167,42.7026948],[0.3962271,42.7017463],[0.3944255,42.6985978],[0.3977888,42.698765],[0.4006365,42.6983584],[0.4022873,42.6971188],[0.4043697,42.6959412],[0.4054802,42.6958358],[0.4154069,42.6950195],[0.4189692,42.694198299999989],[0.4218224,42.6921449],[0.422379,42.6905021],[0.4246705,42.690902],[0.4266936,42.6912551],[0.4287349,42.6904337],[0.4319824,42.6913236],[0.4344018,42.6913132],[0.4362692,42.6897266],[0.4402132,42.6911183],[0.4431189,42.6913781],[0.4438487,42.6914521],[0.4484115,42.6919791],[0.4500987,42.6929471],[0.4523484,42.6946758],[0.4554418,42.693500299999982],[0.4571998,42.6933341],[0.4590975,42.693154599999986],[0.4625657,42.6934312],[0.4632065,42.6940451],[0.4670305,42.6952834],[0.4685228,42.696590599999986],[0.4716007,42.6989297],[0.4738391,42.7004432],[0.4752382,42.6999616],[0.4785959,42.7003677],[0.4836324,42.6990607],[0.4845638,42.6986174],[0.4865236,42.697684699999989],[0.4889802,42.6964256],[0.4921139,42.6951414],[0.4920976,42.6945112],[0.4926519,42.693948199999987],[0.4928785,42.693036],[0.494358,42.6925487],[0.4962553,42.6923462],[0.4975987,42.6921298],[0.4989257,42.691855399999987],[0.5026976,42.692807599999988],[0.5038015,42.6928977],[0.5058143,42.6924727],[0.5073666,42.6927035],[0.5078696,42.6925704],[0.5084031,42.6925252],[0.5100184,42.692394800000017],[0.5132664,42.691714499999989],[0.5141819,42.6917687],[0.5152916,42.6914274],[0.5168542,42.6911276],[0.5188552,42.6919482],[0.5195541,42.6930136],[0.5209375,42.6947219],[0.5211923,42.695402],[0.5208907,42.6976332],[0.5217235,42.6981409],[0.5220651,42.6984522],[0.5228297,42.6988654],[0.5234986,42.6994743],[0.5248029,42.6999758],[0.526188,42.7004867],[0.5263368,42.7012007],[0.5266251,42.7026745],[0.5299847,42.7026531],[0.5304855,42.702554599999985],[0.5330515,42.701251],[0.5339545,42.700474],[0.5356424,42.6997746],[0.5367927,42.700052],[0.5382644,42.7001131],[0.5396271,42.7002331],[0.541543,42.700129],[0.5435406,42.700538],[0.5444642,42.7008258],[0.5451404,42.7012168],[0.5455527,42.701356],[0.5474861,42.7008171],[0.5487665,42.7002377],[0.5503624,42.7001432],[0.5512352,42.7003018],[0.5518556,42.7002231],[0.5531534,42.6997902],[0.5542124,42.6995362],[0.5552957,42.6992091],[0.556206,42.6993636],[0.5566316,42.699173899999984],[0.5575771,42.699370699999989],[0.5599122,42.6989093],[0.5625372,42.6988347],[0.5635946,42.6985219],[0.5648049,42.6985389],[0.5660751,42.6982794],[0.566965,42.6977759],[0.5673224,42.6972958],[0.5684399,42.6968216],[0.5699305,42.6964947],[0.5708986,42.697504],[0.5720545,42.6980071],[0.5721647,42.697652799999986],[0.5729129,42.6970094],[0.5733627,42.6968636],[0.5754324,42.6954932],[0.5763418,42.6953514],[0.5768655,42.6955454],[0.5774245,42.6952969],[0.5787764,42.6955613],[0.5790551,42.695375],[0.5797714,42.6954516],[0.5801596,42.6955241],[0.5813853,42.695015],[0.5824367,42.695002],[0.5831249,42.6953537],[0.5836437,42.6956],[0.585235,42.695903899999983],[0.5857905,42.6957211],[0.5863207,42.6954116],[0.5875263,42.6946195],[0.5880958,42.6948209],[0.5893631,42.6949443],[0.5893687,42.6954585],[0.5898266,42.6963433],[0.5897997,42.6968102],[0.5899976,42.6971273],[0.5902289,42.6975868],[0.5902624,42.6980464],[0.5908066,42.6983935],[0.5907654,42.6988588],[0.5921157,42.6998839],[0.5923342,42.7002051],[0.5927976,42.7003854],[0.5931162,42.700729],[0.5933231,42.7011177],[0.5931011,42.7013662],[0.5935416,42.702224699999988],[0.5933921,42.7030951],[0.5937372,42.703447800000014],[0.5937843,42.7038135],[0.5941253,42.7041423],[0.5950538,42.7044767],[0.5957018,42.7047204],[0.5963138,42.7049982],[0.5971184,42.7055439],[0.5979197,42.7050354],[0.5993681,42.7044553],[0.599643,42.7039404],[0.6002488,42.7033359],[0.6015715,42.702740799999987],[0.6028989,42.7023142],[0.6033373,42.70182],[0.6034666,42.7011764],[0.603266,42.7007543],[0.6038563,42.7004629],[0.6044966,42.700149],[0.6046944,42.69975740000001],[0.6058414,42.6991899],[0.6064487,42.6991602],[0.6068956,42.6991598],[0.6071758,42.6991872],[0.6081916,42.6988814],[0.6092387,42.6986882],[0.6095148,42.6985647],[0.6107024,42.6985236],[0.6113405,42.6982911],[0.6137046,42.69748],[0.6144641,42.69753450000001],[0.6155868,42.697375399999984],[0.6161714,42.6973202],[0.6164194,42.6970162],[0.6169297,42.6967304],[0.6168633,42.6960675],[0.6177206,42.695821],[0.6183946,42.695768699999988],[0.6186918,42.6958676],[0.6190104,42.6957773],[0.6199051,42.6955271],[0.6219722,42.6952314],[0.6228168,42.6950977],[0.623595,42.6949341],[0.6255352,42.6953783],[0.6269874,42.6952012],[0.6277339,42.695661600000015],[0.6283038,42.6955531],[0.628793,42.6956169],[0.6292142,42.6953014],[0.6309093,42.6949651],[0.6317881,42.6948151],[0.6321446,42.694613499999988],[0.6328981,42.6946011],[0.6335677,42.694194],[0.6353236,42.6938064],[0.635888,42.6934267],[0.6386839,42.6926592],[0.6397643,42.6925611],[0.6410054,42.6928219],[0.6414835,42.6932572],[0.6426539,42.6935165],[0.6442118,42.6934069],[0.6449018,42.6936673],[0.6459993,42.693792899999984],[0.6473213,42.6942478],[0.6477727,42.6940678],[0.6484726,42.6940677],[0.650625,42.6927008],[0.6514675,42.69223370000001],[0.6529952,42.6922466],[0.6541826,42.6919915],[0.6568054,42.691838899999986],[0.6579288,42.6911702],[0.6585988,42.6909489],[0.6599304,42.6907735],[0.6608796,42.6910152],[0.6618046,42.691374],[0.6640816,42.6911828],[0.6665827,42.6899788],[0.6672801,42.689380599999986],[0.6689096,42.689169],[0.6706039,42.6897977],[0.6708559,42.6899649],[0.6712731,42.6899816],[0.6728648,42.6901036],[0.6760386,42.690757199999986],[0.6763997,42.6907742],[0.6766901,42.6907492],[0.6767589,42.690792700000017],[0.6761465,42.6928844],[0.6760872,42.6932491],[0.6762622,42.693543],[0.6762149,42.694074],[0.6755533,42.6946],[0.6749509,42.6946359],[0.6741691,42.6960365],[0.6740556,42.6966064],[0.6741732,42.6970455],[0.6744172,42.698024],[0.6740006,42.6986217],[0.6743056,42.6995582],[0.6751463,42.7011739],[0.6762187,42.7029496],[0.6775707,42.7033968],[0.6775864,42.7034055],[0.6782604,42.7036832],[0.6792333,42.704454599999984],[0.6801551,42.7049266],[0.6806491,42.7050011],[0.68105,42.7053206],[0.6814691,42.7060998],[0.6816317,42.7064697],[0.6818477,42.7074121],[0.6824049,42.7083302],[0.6826609,42.7089054],[0.6824694,42.709067],[0.6821982,42.7093534],[0.6815467,42.709927],[0.6812804,42.7103324],[0.6807767,42.710522],[0.6805509,42.710614],[0.6797638,42.71068660000001],[0.6790581,42.7111441],[0.6787074,42.7116186],[0.6777204,42.7122182],[0.6767936,42.7132146],[0.6768378,42.7136752],[0.6766191,42.7140317],[0.6754853,42.7150248],[0.6740559,42.7165461],[0.673778,42.7171383],[0.6738433,42.7177728],[0.6746367,42.718712],[0.676771,42.7207392],[0.6776501,42.7214813],[0.6795634,42.7225541],[0.6801738,42.7232438],[0.6790819,42.7239916],[0.6786313,42.7245972],[0.6786748,42.7252641],[0.678636,42.7261],[0.6778239,42.7266712],[0.6777812,42.7274111],[0.6774134,42.727738],[0.6767606,42.728266499999989],[0.6760529,42.7286678],[0.6744966,42.7293144],[0.6731629,42.7296397],[0.6719871,42.7299395],[0.6709587,42.7304871],[0.6704322,42.7309316],[0.6703697,42.7313139],[0.6702851,42.73171390000001],[0.669793,42.7319891],[0.6696417,42.7324525],[0.6700271,42.7332854],[0.6697775,42.7335172],[0.6698428,42.7338774],[0.6699535,42.7339993],[0.6700379,42.7342325],[0.6694114,42.7346786],[0.6687125,42.7351161],[0.6684747,42.7355133],[0.6683872,42.7360468],[0.6678766,42.736286],[0.6673338,42.7365012],[0.6671116,42.7367858],[0.6668976,42.7375172],[0.6670786,42.7380806],[0.6674534,42.7384849],[0.6668652,42.7388663],[0.6665188,42.7392764],[0.6666317,42.7395877],[0.6665536,42.7402011],[0.6666657,42.7405651],[0.66703,42.7412125],[0.666923,42.7415173],[0.6664074,42.741817],[0.6659041,42.7418631],[0.6648478,42.741962499999985],[0.6646692,42.7420014],[0.664114,42.7422213],[0.6633475,42.7430238],[0.6631805,42.7433783],[0.6632051,42.743565],[0.663337,42.743701299999984],[0.6631745,42.743792499999984],[0.6630534,42.7445717],[0.6631489,42.7447509],[0.6627667,42.745149],[0.6626967,42.7457239],[0.6628425,42.7463143],[0.6630419,42.7468793],[0.6633997,42.7472903],[0.6636243,42.747476399999989],[0.6641029,42.7478766],[0.663767,42.74867],[0.6637355,42.749522399999982],[0.6632951,42.7497258],[0.6613805,42.7506009],[0.6609487,42.7510084],[0.6608237,42.751469600000014],[0.6608945,42.7518749],[0.6603499,42.7519708],[0.659994,42.75219],[0.6593594,42.7522235],[0.647317,42.751446],[0.6391775,42.7549146],[0.6419741,42.7546372],[0.6440493,42.755053],[0.6451215,42.755602],[0.6460103,42.7556965],[0.6464193,42.7563057],[0.6474983,42.7576319],[0.6479153,42.758130700000017],[0.6489652,42.7584512],[0.6496058,42.7594895],[0.650328,42.760822899999987],[0.6509876,42.7627409],[0.6511066,42.7632053],[0.6509735,42.763574],[0.650937,42.7636703],[0.6502026,42.7640502],[0.6499577,42.7643038],[0.6501336,42.764521],[0.6505776,42.7651932],[0.6511037,42.7654808],[0.6523539,42.76631],[0.6538594,42.7669695],[0.6540145,42.7670405],[0.6550454,42.7679869],[0.6553149,42.7683175],[0.6556525,42.7685354],[0.6567834,42.7686535],[0.6571075,42.7684421],[0.6584759,42.768114],[0.6597341,42.7685007],[0.6600979,42.7690997],[0.6608391,42.7693323],[0.6623032,42.7700316],[0.6637904,42.7711816],[0.6644422,42.7714691],[0.6651337,42.7725733],[0.6657494,42.7737899],[0.6658141,42.7742009],[0.6659684,42.7743397],[0.6666094,42.7748998],[0.6668682,42.7749933],[0.6670091,42.7750514],[0.6672416,42.7752878],[0.6669333,42.7753182],[0.6668401,42.7753979],[0.6655204,42.775664699999986],[0.6642222,42.7757277],[0.6629723,42.7756568],[0.6617868,42.7759206],[0.6603599,42.77593250000001],[0.6599843,42.7758222],[0.6592655,42.7758222],[0.6592253,42.7761825],[0.6569159,42.7773027],[0.6559342,42.7772633],[0.654636,42.7768735],[0.6541425,42.7769759],[0.6537831,42.777346],[0.6534076,42.7774602],[0.6515998,42.7776965],[0.6503713,42.7785666],[0.6502479,42.7789958],[0.6495881,42.7792754],[0.6494808,42.7795825],[0.649572,42.780114],[0.6494808,42.7804014],[0.6491053,42.7804566],[0.6489658,42.7807637],[0.6487727,42.7809093],[0.6479144,42.7818779],[0.647606,42.7820295],[0.6474343,42.7821673],[0.6465304,42.782523599999983],[0.6463131,42.7825354],[0.6458732,42.782720399999988],[0.6448167,42.7829775],[0.6452101,42.7832113],[0.64569,42.7833837],[0.6461392,42.7837478],[0.6465065,42.7842198],[0.6466905,42.7844263],[0.6472127,42.7849419],[0.6476471,42.7851183],[0.6477267,42.7851193],[0.6481451,42.7852244],[0.6487083,42.78525],[0.6489419,42.7852455],[0.6491044,42.785183],[0.6492401,42.7852355],[0.6493284,42.7852777],[0.6494497,42.7852996],[0.6497184,42.785273599999989],[0.6502908,42.7850965],[0.6506119,42.7850609],[0.6505618,42.7851843],[0.6505274,42.785277899999983],[0.6505043,42.7853738],[0.6505262,42.7855774],[0.650637,42.785765499999982],[0.6508216,42.7859742],[0.6510528,42.7862621],[0.651976,42.787035099999983],[0.6521657,42.7872893],[0.6525421,42.7875958],[0.6526634,42.7880941],[0.6529892,42.7889675],[0.6530696,42.7892321],[0.6533754,42.7895412],[0.653488,42.7896415],[0.6536418,42.789845],[0.6536832,42.7899378],[0.6537668,42.7901545],[0.6537492,42.7904192],[0.6536859,42.7905809],[0.6537643,42.7908954],[0.6538908,42.7911235],[0.6538483,42.7912403],[0.6538474,42.7913839],[0.6539088,42.79153],[0.6539586,42.7916709],[0.6541532,42.791933],[0.6541809,42.7919985],[0.6541856,42.7921025],[0.6542364,42.7922791],[0.654408,42.7923657],[0.654982,42.7930475],[0.6550781,42.7932085],[0.6551537,42.7932415],[0.6552485,42.79329580000001],[0.6553066,42.7933872],[0.6553602,42.7935673],[0.6554246,42.793641099999988],[0.6559436,42.793723799999988],[0.6560951,42.7937415],[0.6562118,42.7937277],[0.6563183,42.79373],[0.6564053,42.793754],[0.6564961,42.7938268],[0.6565857,42.7938896],[0.6566322,42.7940081],[0.6567812,42.7942929],[0.6570118,42.7946008],[0.6571967,42.794722299999989],[0.657251,42.7948556],[0.6573011,42.7949339],[0.6575136,42.7950682],[0.6578087,42.7951366],[0.6577536,42.795257],[0.6578109,42.79555890000001],[0.6579051,42.7956334],[0.6579028,42.7956991],[0.6579542,42.7958153],[0.6579726,42.7958814],[0.6579886,42.7960366],[0.658018,42.79607020000001],[0.658064,42.7962268],[0.6581069,42.7962403],[0.6581509,42.7963108],[0.6581915,42.7963442],[0.6582261,42.796390199999983],[0.6582291,42.7964608],[0.6583181,42.7966354],[0.6584663,42.7967849],[0.6585986,42.7968615],[0.6589345,42.7971981],[0.659059,42.7974337],[0.6592264,42.7977855],[0.6598985,42.798341],[0.6600568,42.7983607],[0.660435,42.7984453],[0.6606308,42.7981796],[0.6607485,42.7981931],[0.6611831,42.7982685],[0.6613338,42.7983001],[0.6614793,42.7983033],[0.6617546,42.798321299999984],[0.6624386,42.7983056],[0.6631118,42.7985221],[0.6641445,42.7991578],[0.665043,42.7993998],[0.6654882,42.79973050000001],[0.6659872,42.7999783],[0.6662956,42.800147699999989],[0.6665799,42.800868],[0.6670439,42.8011553],[0.6673953,42.8014662],[0.6679825,42.8014803],[0.6694559,42.8018416],[0.6696837,42.8019779],[0.6699058,42.8024679],[0.6699058,42.8029363],[0.6699236,42.803035800000011],[0.6700721,42.8033456],[0.6706327,42.8040954],[0.6708366,42.8046897],[0.6707615,42.8050242],[0.6707561,42.8055792],[0.6707963,42.8060455],[0.670048,42.8064509],[0.6695116,42.8069999],[0.6694365,42.8073069],[0.6693143,42.8075192],[0.6692692,42.8075832],[0.6690368,42.8078657],[0.6690341,42.808135299999989],[0.6689858,42.8082121],[0.6690663,42.8085112],[0.6685982,42.809203],[0.6682402,42.8099358],[0.666427,42.8114509],[0.6659764,42.8120688],[0.665672,42.8122734],[0.6656116,42.812682700000011],[0.6653112,42.8130486],[0.6649145,42.8137019],[0.6650127,42.8145751],[0.6649297,42.8153238],[0.6651074,42.815693],[0.6656545,42.8162164],[0.6657886,42.8166689],[0.6663519,42.8175739],[0.6666201,42.8178927],[0.6665075,42.8181839],[0.6668937,42.8188921],[0.6680073,42.8196726],[0.6681517,42.8197873],[0.6682402,42.820104],[0.6685647,42.8203775],[0.6689376,42.8206234],[0.6696027,42.8210936],[0.6704014,42.8216351],[0.6702679,42.821953299999983],[0.670276,42.8224786],[0.670108,42.8227392],[0.6699595,42.8231042],[0.6699407,42.823741600000012],[0.6698522,42.8239777],[0.6700928,42.8242976],[0.6697744,42.8244302],[0.6694606,42.8247921],[0.6688678,42.82507540000001],[0.6683689,42.825138399999986],[0.667432,42.826005299999984],[0.667001,42.826061],[0.6660354,42.8264613],[0.6651852,42.8273593],[0.6650886,42.8276583],[0.6640983,42.8278898],[0.6637824,42.8280517],[0.6627122,42.828333],[0.6624002,42.8284713],[0.6615508,42.8295113],[0.6615508,42.8301762],[0.6613469,42.8305381],[0.6612557,42.8308489],[0.660907,42.8310299],[0.6608427,42.8313525],[0.6609211,42.8315858],[0.6610662,42.8318777],[0.6607273,42.831997699999988],[0.6603089,42.832294699999984],[0.6602123,42.8326084],[0.6598395,42.8327569],[0.6596035,42.8337247],[0.6593889,42.834275399999989],[0.6594613,42.8348812],[0.6593558,42.8350226],[0.6591958,42.8353002],[0.6591475,42.8354664],[0.658912,42.836698],[0.6591797,42.8385474],[0.6594425,42.8388778],[0.6606469,42.8396744],[0.6608938,42.839888],[0.6630528,42.8416037],[0.6638735,42.8419538],[0.6644314,42.8423904],[0.6649578,42.8425895],[0.6664163,42.8431397],[0.6673014,42.8436137],[0.6684762,42.8441958],[0.6694525,42.8442587],[0.6698602,42.844361],[0.6704771,42.8443531],[0.672006,42.8447818],[0.6729049,42.845356399999986],[0.6741759,42.8459873],[0.6746788,42.8460965],[0.6752051,42.8460955],[0.6753185,42.8465203],[0.6755546,42.8467445],[0.6761366,42.8470984],[0.676834,42.8471673],[0.6769976,42.8474563],[0.6775528,42.8477198],[0.6777057,42.8478693],[0.6779501,42.8477417],[0.6781892,42.8477124],[0.6785345,42.8476333],[0.6786898,42.8482313],[0.678856,42.848781],[0.6788376,42.8496332],[0.6793002,42.85040140000001],[0.6790119,42.8506341],[0.6787866,42.8514246],[0.6786257,42.8517727],[0.6783977,42.852925],[0.678218,42.8533084],[0.6783575,42.8539376],[0.6782341,42.8548598],[0.6780212,42.8552407],[0.678387,42.854950199999983],[0.6791273,42.8548972],[0.6798971,42.8547261],[0.6806597,42.854949300000015],[0.6812399,42.854843],[0.6820166,42.8547555],[0.6826881,42.8546355],[0.6834952,42.8548636],[0.6837807,42.8548396],[0.684141,42.8550282],[0.6845293,42.8550797],[0.6849271,42.8552135],[0.6850191,42.855278],[0.6852335,42.855266599999986],[0.6856079,42.855174],[0.686029,42.8551637],[0.6863823,42.8549888],[0.6873204,42.8550231],[0.6877392,42.855458699999986],[0.6880106,42.855481],[0.6882001,42.8554501],[0.6886821,42.8554707],[0.6894846,42.8551311],[0.6900297,42.8551397],[0.6910053,42.855009399999986],[0.6914568,42.855078],[0.6925237,42.8554501],[0.6932583,42.8557932],[0.694386,42.856095],[0.6949756,42.8560539],[0.6952914,42.8560882],[0.6956494,42.856144799999988],[0.6959652,42.8562048],[0.6961758,42.8562888],[0.696494,42.856474],[0.6968379,42.8566215],[0.6972005,42.856714199999985],[0.6976333,42.8567673],[0.6982608,42.8570008],[0.6986943,42.8570938],[0.6997022,42.857352],[0.7000454,42.857501399999983],[0.7004432,42.8578169],[0.7009953,42.858012399999986],[0.7007165,42.8578496],[0.7013884,42.8582045],[0.7019311,42.8583108],[0.7026049,42.8588185],[0.7036016,42.8591718],[0.7044026,42.8594793],[0.7045889,42.8595954],[0.7049258,42.8597429],[0.7052744,42.860072099999982],[0.7058991,42.8605214],[0.7064933,42.8605472],[0.7067554,42.8606706],[0.7072233,42.860957],[0.7077123,42.8610977],[0.7084142,42.8614304],[0.7090449,42.861442],[0.7098352,42.8612425],[0.7101739,42.8608944],[0.7107881,42.8607581],[0.7118075,42.8607119],[0.7121395,42.860617],[0.7123387,42.860617],[0.7128368,42.8604831],[0.7132054,42.8601789],[0.7136204,42.8601789],[0.71414,42.860018200000013],[0.7172778,42.8583843],[0.717565,42.859271],[0.7194808,42.8596069],[0.7209086,42.8593976],[0.7233225,42.858964399999984],[0.72483,42.8585141],[0.7259024,42.8580443],[0.7270779,42.8574942],[0.7280906,42.8572362],[0.7287447,42.8568444],[0.7292212,42.8563515],[0.7294752,42.8561215],[0.7303501,42.8554545],[0.7307452,42.8551989],[0.7309942,42.855052900000011],[0.731298,42.854958],[0.7316019,42.8549348],[0.7322211,42.8552476],[0.7324718,42.8552488],[0.7328437,42.8551442],[0.733189,42.854958],[0.7334911,42.8547791],[0.7338614,42.8546184],[0.734371,42.8544249],[0.7345236,42.8543596],[0.7349206,42.8542911],[0.7349735,42.8536584],[0.734995,42.8529427],[0.7350379,42.8522308],[0.7350755,42.8517982],[0.735164,42.8515144],[0.7355002,42.850798099999984],[0.7356705,42.8503305],[0.7358062,42.849747900000011],[0.7359043,42.849230099999986],[0.7359652,42.848955599999982],[0.7363637,42.8489411],[0.7374224,42.848836799999987],[0.7390317,42.848573299999984],[0.7398149,42.8483039],[0.741384,42.8479755],[0.7421941,42.8479303],[0.7438248,42.847303],[0.7452357,42.8470158],[0.7473493,42.8469922],[0.7495808,42.8470945],[0.7503453,42.84669190000001],[0.7510165,42.8460154],[0.7514423,42.8456039],[0.7531212,42.8450558],[0.7561365,42.8438635],[0.7568493,42.843737699999984],[0.760276,42.8430836],[0.7614593,42.8427695],[0.7643583,42.8395136],[0.7644685,42.8394631],[0.7646262,42.8394424],[0.7658287,42.8393709],[0.7670727,42.8394292],[0.7677381,42.8382537],[0.7686253,42.8383523],[0.7718179,42.8385976],[0.7720586,42.8386215],[0.7736084,42.8378553],[0.7748733,42.8372497],[0.7776883,42.8367649],[0.7782412,42.83673],[0.7790461,42.8367687],[0.7804347,42.8367054],[0.7806698,42.8366967],[0.7815177,42.8365158],[0.7821948,42.8364533],[0.7832184,42.836505199999984],[0.784149,42.8364567],[0.7854759,42.836006199999986],[0.7855252,42.8359396],[0.7860992,42.8359962],[0.7874252,42.836611499999989],[0.7882765,42.8368698],[0.7897586,42.8372486],[0.7906105,42.8374907],[0.7924059,42.838036700000011],[0.7944456,42.8391907],[0.7949242,42.8397924],[0.7996482,42.8403331],[0.8008625,42.8406806],[0.8019952,42.8402403],[0.8067581,42.8395444],[0.8107448,42.8387069],[0.8121161,42.8380317],[0.8154537,42.8371554],[0.8169258,42.8361312],[0.817768,42.834594],[0.8206165,42.8346845],[0.8215092,42.8331864],[0.8241272,42.8316942],[0.8247135,42.8317253],[0.8309135,42.8294591],[0.8343998,42.8284967],[0.8405485,42.828704],[0.8409234,42.8287971],[0.8411177,42.8287736],[0.8414064,42.8289343],[0.8414938,42.8289397],[0.8416575,42.8288971],[0.8419099,42.829089],[0.8420619,42.829138],[0.842533,42.8291979],[0.8431075,42.8292315],[0.8435126,42.8292375],[0.8437408,42.8292551],[0.843909,42.8292142],[0.8444655,42.8290301],[0.8447155,42.8289648],[0.8448308,42.8289007],[0.8449315,42.8288212],[0.8450103,42.8288218],[0.8451313,42.828707800000011],[0.8456784,42.8285716],[0.845929,42.8285591],[0.8462109,42.8286511],[0.8465116,42.828625],[0.8468548,42.8285955],[0.8471561,42.8285206],[0.8474739,42.8284006],[0.8476417,42.828362600000013],[0.847826,42.8282607],[0.847961,42.828103],[0.8484733,42.8278657],[0.848731,42.8278118],[0.8490582,42.8276838],[0.8497835,42.8274216],[0.850045,42.827456],[0.8502978,42.827365699999987],[0.850461,42.8272545],[0.8505754,42.8272937],[0.8507457,42.8272341],[0.8508382,42.8271294],[0.8510135,42.8270263],[0.851437,42.8269569],[0.851954,42.826725],[0.8521437,42.8267173],[0.8525351,42.8266256],[0.852747,42.826625699999987],[0.8540856,42.826883399999986],[0.8545958,42.8268565],[0.8553152,42.8268402],[0.8555987,42.8268301],[0.8564053,42.8264947],[0.8569392,42.8261567],[0.8574136,42.8258288],[0.8582133,42.8256902],[0.8578276,42.8251365],[0.8580252,42.8249266],[0.8580322,42.8247568],[0.8581671,42.8243087],[0.8582999,42.8238624],[0.8585038,42.8237032],[0.8586326,42.8234567],[0.8592452,42.8229949],[0.8595777,42.82264],[0.8597191,42.8223817],[0.8602202,42.8220952],[0.8606948,42.8217375],[0.8611484,42.8211483],[0.8619543,42.8208772],[0.8625886,42.8204376],[0.8633297,42.8201853],[0.8635621,42.8199998],[0.8640542,42.8198482],[0.8644138,42.819444],[0.8651902,42.8190044],[0.8659512,42.8188035],[0.8665348,42.8183416],[0.8669266,42.8179105],[0.8686856,42.8170122],[0.8695368,42.816792599999985],[0.8706965,42.8159294],[0.8708824,42.815748],[0.8710372,42.8156874],[0.8712411,42.8157398],[0.87166,42.8157305],[0.8720214,42.8156932],[0.8724197,42.8158555],[0.8730728,42.8159631],[0.8746345,42.8153407],[0.8770013,42.8141627],[0.8783621,42.8142845],[0.8798437,42.8140553],[0.8821874,42.8136183],[0.883073,42.813647],[0.8840498,42.813514],[0.8846451,42.8133481],[0.8852294,42.8132124],[0.8859512,42.8126165],[0.8867601,42.811965899999983],[0.8876146,42.8115355],[0.8883295,42.811211500000013],[0.8891662,42.8108572],[0.8899494,42.8105217],[0.8901869,42.81045],[0.8907026,42.8099712],[0.891103,42.8096646],[0.8912692,42.8091008],[0.8914443,42.8087408],[0.8919204,42.8083603],[0.8923751,42.8081132],[0.893247,42.8076681],[0.8942681,42.807229],[0.8956065,42.806829],[0.8963727,42.8067877],[0.896845,42.807035099999986],[0.8974739,42.8068873],[0.8978583,42.8067607],[0.8984562,42.8058749],[0.8985206,42.8054918],[0.8987551,42.8053313],[0.8989095,42.8050584],[0.8988249,42.8045959],[0.8991897,42.8043278],[0.8993934,42.803997699999982],[0.8994364,42.8037787],[0.902289,42.8030264],[0.9022584,42.802907899999987],[0.902405,42.8027628],[0.9026048,42.802576],[0.9029585,42.8024457],[0.903082,42.8023206],[0.9039036,42.8019324],[0.9042359,42.8018405],[0.9057526,42.8013328],[0.9060476,42.801011],[0.9062653,42.8009683],[0.9065303,42.801051200000011],[0.9067638,42.8009105],[0.9065595,42.8001521],[0.9065729,42.7999074],[0.9067715,42.7996335],[0.9070322,42.7994049],[0.9071684,42.7990594],[0.9071302,42.7986764],[0.9068202,42.797943],[0.9071098,42.7975968],[0.9071158,42.7973096],[0.9074188,42.7970014],[0.9077467,42.7968478],[0.9085011,42.7966928],[0.908848,42.7966487],[0.9091722,42.7965488],[0.9095276,42.7965058],[0.9099041,42.7964411],[0.9105986,42.7964082],[0.9112268,42.7964308],[0.9117871,42.7966484],[0.9119602,42.7967619],[0.9122099,42.7967418],[0.9126088,42.7966332],[0.9150414,42.796271599999983],[0.9157819,42.7961056],[0.9164336,42.7959089],[0.9166387,42.7955796],[0.9166641,42.7951314],[0.9166472,42.794694299999989],[0.916847,42.7944531],[0.916882,42.7941742],[0.9171433,42.7937503],[0.9174284,42.7936133],[0.9176663,42.7936167],[0.9178362,42.7936972],[0.918026,42.7937004],[0.9183336,42.7936903],[0.9185197,42.793634299999987],[0.9190434,42.793547599999989],[0.919234,42.7934888],[0.9194306,42.7933712],[0.9197251,42.7932497],[0.9202024,42.7930819],[0.9207589,42.7927221],[0.9208326,42.7919678],[0.9211402,42.7916464],[0.9214493,42.7915515],[0.9217528,42.7915729],[0.9223714,42.7910327],[0.9229087,42.7908774],[0.9232441,42.7906068],[0.9234088,42.7905516],[0.923864,42.7902023],[0.9250448,42.7898099],[0.9253182,42.789766299999989],[0.9255911,42.7895996],[0.9257931,42.7895826],[0.9262024,42.7893051],[0.9264779,42.7892654],[0.9266796,42.7892896],[0.9270124,42.7894197],[0.9271167,42.7895144],[0.9272224,42.7895377],[0.9273635,42.7895139],[0.9279294,42.7893355],[0.9282036,42.789305],[0.9286767,42.7893806],[0.9289621,42.7894012],[0.929564,42.789208],[0.929777,42.7891721],[0.9299166,42.7891936],[0.9300413,42.7891598],[0.9302364,42.7889946],[0.9305475,42.7888257],[0.9308449,42.788784],[0.9312729,42.7889895],[0.9317193,42.7891073],[0.9321247,42.7894],[0.9326637,42.789350299999988],[0.9333026,42.7896299],[0.9335669,42.7901643],[0.9361478,42.7941376],[0.9401817,42.7976157],[0.9461673,42.7997643],[0.9465449,42.801265],[0.9562369,42.8027162],[0.9601001,42.8059563],[0.9639638,42.804426699999986],[0.9658277,42.8036453],[0.9660072,42.803421],[0.9693436,42.7992505],[0.976894,42.795378],[0.9770281,42.795309200000013],[0.9773609,42.7915856],[0.9773871,42.7912921],[0.982939,42.7872527],[0.9859133,42.7866239],[0.9955897,42.7874637],[0.9982515,42.7881031],[1.0053862,42.7908277],[1.0074429,42.7903779],[1.0079633,42.789880699999976],[1.0094691,42.788891799999988],[1.0098748,42.7885294],[1.0115173,42.7877936],[1.0141502,42.7885334],[1.0173614,42.7871459],[1.0204614,42.7871459],[1.0234059,42.7865277],[1.0235466,42.7864982],[1.026085,42.7865298],[1.0281432,42.7865554],[1.0287454,42.7862011],[1.0295487,42.7857286],[1.0319796,42.7850405],[1.0323117,42.7851017],[1.0325248,42.7852052],[1.0327033,42.7858308],[1.0328853,42.7866953],[1.0329806,42.7870833],[1.0350983,42.786548],[1.0361248,42.7867922],[1.0378782,42.786879599999985],[1.0384844,42.7870455],[1.0384989,42.7870385],[1.0393514,42.7866255],[1.039874,42.7863986],[1.0398894,42.7863969],[1.0403608,42.7863448],[1.0410763,42.7861331],[1.0416707,42.7860615],[1.0423144,42.785834399999985],[1.0432962,42.7854107],[1.0438642,42.7848312],[1.0440594,42.7845205],[1.0435767,42.7837429],[1.0428624,42.7821236],[1.0437826,42.7811046],[1.0446973,42.7810459],[1.0454124,42.7810502],[1.0460143,42.781107],[1.0464428,42.7811196],[1.0470108,42.7810905],[1.0476836,42.7810085],[1.0479186,42.780946199999988],[1.0484369,42.7811683],[1.0489309,42.781291],[1.0490613,42.7814474],[1.0496928,42.7816962],[1.0499809,42.7817844],[1.0502587,42.7819084],[1.0519573,42.7822984],[1.0536354,42.7826209],[1.0541065,42.782549],[1.0542744,42.7825208],[1.0555904,42.7822626],[1.0564862,42.7820904],[1.0572166,42.7818995],[1.0575473,42.781901],[1.0582594,42.782012199999983],[1.0584755,42.7820086],[1.0588183,42.7825305],[1.0588047,42.7826413],[1.0589002,42.7827451],[1.0591735,42.782833],[1.0592926,42.7829367],[1.0593199,42.7829709],[1.0593421,42.78321720000001],[1.0594027,42.7834115],[1.0593881,42.7835523],[1.0597633,42.7833823],[1.0600149,42.7833196],[1.0601277,42.7831195],[1.0602897,42.7831018],[1.0606903,42.7830297],[1.0611313,42.7830615],[1.0616819,42.7832884],[1.0620081,42.7832274],[1.0622769,42.78320020000001],[1.0640567,42.783238399999988],[1.0642194,42.7832472],[1.0647975,42.78327440000001],[1.0652971,42.7831678],[1.0658877,42.7830425],[1.0661962,42.7830397],[1.0665204,42.7829033],[1.0665708,42.7828772],[1.0671486,42.782577],[1.0676977,42.7827458],[1.0723308,42.7826276],[1.0734228,42.782602],[1.0743658,42.7832169],[1.0746945,42.7839345],[1.0748902,42.7843617],[1.0754101,42.7854967],[1.0757287,42.7860633],[1.0761085,42.7863762],[1.0763659,42.7866729],[1.0765903,42.787068899999987],[1.0767239,42.7872672],[1.076642,42.787397599999984],[1.0766524,42.7874652],[1.0767777,42.787678899999989],[1.0767197,42.7877991],[1.0768267,42.787875599999985],[1.0771768,42.7881549],[1.0775684,42.7882918],[1.0776779,42.7883206],[1.0779578,42.7883072],[1.0782517,42.7883196],[1.0788848,42.7883373],[1.0790544,42.788215],[1.0791671,42.788004599999987],[1.0793152,42.7879421],[1.0795486,42.7878681],[1.0797767,42.7877645],[1.0802095,42.7874798],[1.0803242,42.787303799999989],[1.0804526,42.7872003],[1.0807504,42.786999399999978],[1.0811809,42.7867125],[1.0813815,42.7865666],[1.0818103,42.7861925],[1.0822699,42.785667400000015],[1.0823802,42.7855948],[1.0824569,42.7855259],[1.0828314,42.7853736],[1.0829989,42.7852561],[1.0832515,42.7849724],[1.0833368,42.7848005],[1.083354,42.7847064],[1.0832894,42.784556],[1.0831439,42.7843013],[1.0831,42.7840353],[1.083048,42.78378570000001],[1.0830725,42.7836045],[1.0839687,42.7818164],[1.0847211,42.7812457],[1.086195,42.780515],[1.087513,42.7783681],[1.0882816,42.7782485],[1.0899316,42.7776274],[1.0907803,42.7765246],[1.0916104,42.7761882],[1.093343,42.775783],[1.093764761481536,42.775414844611909]]]}}
]
}
