{
"type": "FeatureCollection",
"name": "hut",
"crs": { "type": "name", "properties": { "name": "urn:ogc:def:crs:OGC:1.3:CRS84" } },
"xy_coordinate_resolution": 1e-15,
"features": [
{"type":"Feature","properties":{"fid":1,"name":"Refugio de Viadós"},"geometry":{"type":"Point","coordinates":[0.377248224436161,42.660663035110332]}},
{"type":"Feature","properties":{"fid":2,"name":"Hospice de France"},"geometry":{"type":"Point","coordinates":[0.654906663728107,42.721126274918895]}},
{"type":"Feature","properties":{"fid":3,"name":"Refuge d'Espingo"},"geometry":{"type":"Point","coordinates":[0.49957035,42.73051945]}},
{"type":"Feature","properties":{"fid":4,"name":"Refuge du Lac d'Oô"},"geometry":{"type":"Point","coordinates":[0.490870215797478,42.744538481399424]}},
{"type":"Feature","properties":{"fid":5,"name":"Refugi del Gerdar"},"geometry":{"type":"Point","coordinates":[1.0394935,42.6376473]}},
{"type":"Feature","properties":{"fid":6,"name":"Gite d'Étape d'Eylie"},"geometry":{"type":"Point","coordinates":[0.934526333812198,42.834309202375351]}},
{"type":"Feature","properties":{"fid":7,"name":"Refuge de l'etang d'Araing"},"geometry":{"type":"Point","coordinates":[0.87340495,42.8346799]}},
{"type":"Feature","properties":{"fid":8,"name":"Refuge de la Soula"},"geometry":{"type":"Point","coordinates":[0.419940188263638,42.72265598653776]}},
{"type":"Feature","properties":{"fid":9,"name":"Refugio del Turmo"},"geometry":{"type":"Point","coordinates":[0.57965795,42.533630249999987]}},
{"type":"Feature","properties":{"fid":10,"name":"Refugi Colomina"},"geometry":{"type":"Point","coordinates":[1.00128990705255,42.519479668917924]}},
{"type":"Feature","properties":{"fid":11,"name":"Refugi dera Artiga de Lin"},"geometry":{"type":"Point","coordinates":[0.7047303,42.678548699999979]}},
{"type":"Feature","properties":{"fid":12,"name":"Refugi de Conangles"},"geometry":{"type":"Point","coordinates":[0.76818935,42.61524]}},
{"type":"Feature","properties":{"fid":13,"name":"Refugio de la Renclusa"},"geometry":{"type":"Point","coordinates":[0.650797378334937,42.669333199264642]}},
{"type":"Feature","properties":{"fid":14,"name":"Refugio de Estós"},"geometry":{"type":"Point","coordinates":[0.485214792837156,42.675549063664477]}},
{"type":"Feature","properties":{"fid":15,"name":"Refugio el Clot"},"geometry":{"type":"Point","coordinates":[0.476696130285319,42.469606036918321]}},
{"type":"Feature","properties":{"fid":16,"name":"Refugi de Colomèrs"},"geometry":{"type":"Point","coordinates":[0.92063136975852,42.624242398619408]}},
{"type":"Feature","properties":{"fid":18,"name":"Refugio Ángel Orús"},"geometry":{"type":"Point","coordinates":[0.45738066753321,42.627444299356938]}},
{"type":"Feature","properties":{"fid":19,"name":"Refuge du Portillon"},"geometry":{"type":"Point","coordinates":[0.508112862216529,42.703849216644088]}},
{"type":"Feature","properties":{"fid":20,"name":"Refugi Josep Maria Blanc"},"geometry":{"type":"Point","coordinates":[1.044067799298577,42.545692243345655]}},
{"type":"Feature","properties":{"fid":21,"name":"Refugi Ernest Mallafré"},"geometry":{"type":"Point","coordinates":[1.0091107,42.57882115]}},
{"type":"Feature","properties":{"fid":22,"name":"Refuge «Les Estagnous»"},"geometry":{"type":"Point","coordinates":[1.072393251273454,42.797394463315698]}},
{"type":"Feature","properties":{"fid":23,"name":"Refugi Amics de Montgarri"},"geometry":{"type":"Point","coordinates":[0.994400570314773,42.759390948254008]}},
{"type":"Feature","properties":{"fid":24,"name":"Refugio Cap de Llauset"},"geometry":{"type":"Point","coordinates":[0.683248114443433,42.596263843440255]}},
{"type":"Feature","properties":{"fid":25,"name":"Refugi de la Restanca"},"geometry":{"type":"Point","coordinates":[0.854648665706155,42.634706353297879]}},
{"type":"Feature","properties":{"fid":26,"name":"Refugi d'Amitges"},"geometry":{"type":"Point","coordinates":[0.984613689394019,42.596675085317898]}},
{"type":"Feature","properties":{"fid":27,"name":"Refugi de Saboredo"},"geometry":{"type":"Point","coordinates":[0.963377248082873,42.621072655955551]}},
{"type":"Feature","properties":{"fid":28,"name":"Refuge de Vénasque"},"geometry":{"type":"Point","coordinates":[0.641906393371245,42.700239645434991]}},
{"type":"Feature","properties":{"fid":30,"name":"Refugio Chinestral"},"geometry":{"type":"Point","coordinates":[0.530683750586996,42.548890421469146]}},
{"type":"Feature","properties":{"fid":31,"name":"Refugi d'Estany Llong"},"geometry":{"type":"Point","coordinates":[0.942367,42.5725909]}},
{"type":"Feature","properties":{"fid":32,"name":"Refugi del Pla de la Font"},"geometry":{"type":"Point","coordinates":[1.0727342,42.5975622]}},
{"type":"Feature","properties":{"fid":33,"name":"Refugi forestau deth Saut deth Pish"},"geometry":{"type":"Point","coordinates":[0.835364,42.7775405]}},
{"type":"Feature","properties":{"fid":34,"name":"Refugi forestau dera Honeria"},"geometry":{"type":"Point","coordinates":[0.8066073,42.8182975]}},
{"type":"Feature","properties":{"fid":35,"name":"Refugi Espitau de Vielha"},"geometry":{"type":"Point","coordinates":[0.763801,42.6270513]}},
{"type":"Feature","properties":{"fid":36,"name":"Refugi Ventosa i Calvell"},"geometry":{"type":"Point","coordinates":[0.8773924,42.6053096]}},
{"type":"Feature","properties":{"fid":37,"name":"Hospice du Rioumajou"},"geometry":{"type":"Point","coordinates":[0.2939057,42.7080038]}},
{"type":"Feature","properties":{"fid":38,"name":"Albergue Pájaro Loco"},"geometry":{"type":"Point","coordinates":[0.4920949,42.5122806]}},
{"type":"Feature","properties":{"fid":39,"name":"Gîte d'étape GR10"},"geometry":{"type":"Point","coordinates":[0.6192588,42.8322952]}},
{"type":"Feature","properties":{"fid":40,"name":"Cabane de Aoueran"},"geometry":{"type":"Point","coordinates":[0.827363,42.8394357]}},
{"type":"Feature","properties":{"fid":41,"name":"Refugi Bassa d'Olles Era Piusa"},"geometry":{"type":"Point","coordinates":[0.7739222,42.7148999]}},
{"type":"Feature","properties":{"fid":42,"name":"Refuge de Maupas"},"geometry":{"type":"Point","coordinates":[0.5491203,42.7148097]}}
]
}
